{"type": "FeatureCollection", "features": [ {"type": "Feature", "properties": {"norad_id": 34874, "name": "COSMOS 2251 DEB", "group": "cosmos-2251-debris", "lat": 40.53846098863784, "lon": -108.75733394498862, "alt_km": 733.8352254330757, "timestamp": "2025-12-06T09:34:17.309474+00:00", "meta": {"OBJECT_NAME": "COSMOS 2251 DEB", "OBJECT_ID": "1993-036ACM", "EPOCH": "2025-12-04T13:32:54.756096", "MEAN_MOTION": 14.36242809, "ECCENTRICITY": 0.0051431, "INCLINATION": 74.0394, "RA_OF_ASC_NODE": 88.7771, "ARG_OF_PERICENTER": 116.6464, "MEAN_ANOMALY": 260.0885, "EPHEMERIS_TYPE": 0, "CLASSIFICATION_TYPE": "U", "NORAD_CAT_ID": 34874, "ELEMENT_SET_NO": 999, "REV_AT_EPOCH": 86927, "BSTAR": 0.0022032, "MEAN_MOTION_DOT": 6.511e-05, "MEAN_MOTION_DDOT": 0}, "tle": {"line1": "1 34874U 93036ACM 25338.56452264  .00006511  00000+0  22032-2 0  9995", "line2": "2 34874  74.0394  88.7771 0051431 116.6464 260.0885 14.36242809869275"}}, "geometry": {"type": "Point", "coordinates": [-108.75733394498862, 40.53846098863784]}}, {"type": "Feature", "properties": {"norad_id": 34875, "name": "COSMOS 2251 DEB", "group": "cosmos-2251-debris", "lat": -72.14756253385185, "lon": 52.760657528120895, "alt_km": 726.5765871164003, "timestamp": "2025-12-06T09:34:17.309484+00:00", "meta": {"OBJECT_NAME": "COSMOS 2251 DEB", "OBJECT_ID": "1993-036ACN", "EPOCH": "2025-12-05T19:10:34.338720", "MEAN_MOTION": 14.48889136, "ECCENTRICITY": 0.00160013, "INCLINATION": 74.0434, "RA_OF_ASC_NODE": 171.2182, "ARG_OF_PERICENTER": 295.2816, "MEAN_ANOMALY": 79.403, "EPHEMERIS_TYPE": 0, "CLASSIFICATION_TYPE": "U", "NORAD_CAT_ID": 34875, "ELEMENT_SET_NO": 999, "REV_AT_EPOCH": 87655, "BSTAR": 0.00080435866, "MEAN_MOTION_DOT": 3.022e-05, "MEAN_MOTION_DDOT": 0}, "tle": {"line1": "1 34875U 93036ACN 25339.79900855  .00003022  00000+0  80436-3 0  9993", "line2": "2 34875  74.0434 171.2182 0016001 295.2816  79.4030 14.48889136876550"}}, "geometry": {"type": "Point", "coordinates": [52.760657528120895, -72.14756253385185]}}, {"type": "Feature", "properties": {"norad_id": 34878, "name": "COSMOS 2251 DEB", "group": "cosmos-2251-debris", "lat": -68.87080062370842, "lon": -74.52994481494116, "alt_km": 1366.1523368550352, "timestamp": "2025-12-06T09:34:17.309494+00:00", "meta": {"OBJECT_NAME": "COSMOS 2251 DEB", "OBJECT_ID": "1993-036ACR", "EPOCH": "2025-12-04T13:43:42.679200", "MEAN_MOTION": 13.44176987, "ECCENTRICITY": 0.0435275, "INCLINATION": 73.9644, "RA_OF_ASC_NODE": 60.2789, "ARG_OF_PERICENTER": 45.4056, "MEAN_ANOMALY": 16.8273, "EPHEMERIS_TYPE": 0, "CLASSIFICATION_TYPE": "U", "NORAD_CAT_ID": 34878, "ELEMENT_SET_NO": 999, "REV_AT_EPOCH": 81163, "BSTAR": 0.00074707, "MEAN_MOTION_DOT": 7.47e-06, "MEAN_MOTION_DDOT": 0}, "tle": {"line1": "1 34878U 93036ACR 25338.57202175  .00000747  00000+0  74707-3 0  9996", "line2": "2 34878  73.9644  60.2789 0435275  45.4056  16.8273 13.44176987811633"}}, "geometry": {"type": "Point", "coordinates": [-74.52994481494116, -68.87080062370842]}}, {"type": "Feature", "properties": {"norad_id": 34882, "name": "COSMOS 2251 DEB", "group": "cosmos-2251-debris", "lat": -73.25860953058691, "lon": 165.73240305310242, "alt_km": 695.7048319009627, "timestamp": "2025-12-06T09:34:17.309504+00:00", "meta": {"OBJECT_NAME": "COSMOS 2251 DEB", "OBJECT_ID": "1993-036ACV", "EPOCH": "2025-12-04T16:53:13.957728", "MEAN_MOTION": 14.61571814, "ECCENTRICITY": 0.00824762, "INCLINATION": 74.0468, "RA_OF_ASC_NODE": 240.9544, "ARG_OF_PERICENTER": 9.9257, "MEAN_ANOMALY": 350.3513, "EPHEMERIS_TYPE": 0, "CLASSIFICATION_TYPE": "U", "NORAD_CAT_ID": 34882, "ELEMENT_SET_NO": 999, "REV_AT_EPOCH": 88407, "BSTAR": 0.0003857555, "MEAN_MOTION_DOT": 1.979e-05, "MEAN_MOTION_DDOT": 0}, "tle": {"line1": "1 34882U 93036ACV 25338.70363377  .00001979  00000+0  38576-3 0  9990", "line2": "2 34882  74.0468 240.9544 0082476   9.9257 350.3513 14.61571814884078"}}, "geometry": {"type": "Point", "coordinates": [165.73240305310242, -73.25860953058691]}}, {"type": "Feature", "properties": {"norad_id": 34883, "name": "COSMOS 2251 DEB", "group": "cosmos-2251-debris", "lat": -16.331071569649232, "lon": -100.70461942913217, "alt_km": 696.1017628734089, "timestamp": "2025-12-06T09:34:17.309514+00:00", "meta": {"OBJECT_NAME": "COSMOS 2251 DEB", "OBJECT_ID": "1993-036ACW", "EPOCH": "2025-12-05T12:48:10.147392", "MEAN_MOTION": 14.51089024, "ECCENTRICITY": 0.00948064, "INCLINATION": 74.2012, "RA_OF_ASC_NODE": 76.1477, "ARG_OF_PERICENTER": 262.4835, "MEAN_ANOMALY": 96.5549, "EPHEMERIS_TYPE": 0, "CLASSIFICATION_TYPE": "U", "NORAD_CAT_ID": 34883, "ELEMENT_SET_NO": 999, "REV_AT_EPOCH": 86335, "BSTAR": 0.008886316, "MEAN_MOTION_DOT": 0.00037497, "MEAN_MOTION_DDOT": 0}, "tle": {"line1": "1 34883U 93036ACW 25339.53345078  .00037497  00000+0  88863-2 0  9998", "line2": "2 34883  74.2012  76.1477 0094806 262.4835  96.5549 14.51089024863350"}}, "geometry": {"type": "Point", "coordinates": [-100.70461942913217, -16.331071569649232]}}, {"type": "Feature", "properties": {"norad_id": 34884, "name": "COSMOS 2251 DEB", "group": "cosmos-2251-debris", "lat": -25.635110521036754, "lon": 61.53779767115671, "alt_km": 606.1100529382002, "timestamp": "2025-12-06T09:34:17.309524+00:00", "meta": {"OBJECT_NAME": "COSMOS 2251 DEB", "OBJECT_ID": "1993-036ACX", "EPOCH": "2025-12-05T12:49:16.882752", "MEAN_MOTION": 14.89514999, "ECCENTRICITY": 0.00025998, "INCLINATION": 74.0183, "RA_OF_ASC_NODE": 71.1725, "ARG_OF_PERICENTER": 126.1253, "MEAN_ANOMALY": 252.941, "EPHEMERIS_TYPE": 0, "CLASSIFICATION_TYPE": "U", "NORAD_CAT_ID": 34884, "ELEMENT_SET_NO": 999, "REV_AT_EPOCH": 87698, "BSTAR": 0.0048496145, "MEAN_MOTION_DOT": 0.00046501, "MEAN_MOTION_DDOT": 0}, "tle": {"line1": "1 34884U 93036ACX 25339.53422318  .00046501  00000+0  48496-2 0  9996", "line2": "2 34884  74.0183  71.1725 0002599 126.1253 252.9410 14.89514999876980"}}, "geometry": {"type": "Point", "coordinates": [61.53779767115671, -25.635110521036754]}}, {"type": "Feature", "properties": {"norad_id": 34885, "name": "COSMOS 2251 DEB", "group": "cosmos-2251-debris", "lat": 13.425191780579382, "lon": -161.12010396608434, "alt_km": 722.278592997759, "timestamp": "2025-12-06T09:34:17.309535+00:00", "meta": {"OBJECT_NAME": "COSMOS 2251 DEB", "OBJECT_ID": "1993-036ACY", "EPOCH": "2025-12-05T22:26:59.057664", "MEAN_MOTION": 14.51450039, "ECCENTRICITY": 0.00153443, "INCLINATION": 74.0307, "RA_OF_ASC_NODE": 195.8327, "ARG_OF_PERICENTER": 281.561, "MEAN_ANOMALY": 191.936, "EPHEMERIS_TYPE": 0, "CLASSIFICATION_TYPE": "U", "NORAD_CAT_ID": 34885, "ELEMENT_SET_NO": 999, "REV_AT_EPOCH": 87380, "BSTAR": 0.0011517294, "MEAN_MOTION_DOT": 4.581e-05, "MEAN_MOTION_DDOT": 0}, "tle": {"line1": "1 34885U 93036ACY 25339.93540576  .00004581  00000+0  11517-2 0  9994", "line2": "2 34885  74.0307 195.8327 0015344 281.5610 191.9360 14.51450039873803"}}, "geometry": {"type": "Point", "coordinates": [-161.12010396608434, 13.425191780579382]}}, {"type": "Feature", "properties": {"norad_id": 34886, "name": "COSMOS 2251 DEB", "group": "cosmos-2251-debris", "lat": -70.10877129656028, "lon": 142.01984603387572, "alt_km": 463.70919940848853, "timestamp": "2025-12-06T09:34:17.309545+00:00", "meta": {"OBJECT_NAME": "COSMOS 2251 DEB", "OBJECT_ID": "1993-036ACZ", "EPOCH": "2025-12-02T21:33:25.254144", "MEAN_MOTION": 15.36781254, "ECCENTRICITY": 0.00310818, "INCLINATION": 73.9522, "RA_OF_ASC_NODE": 202.2947, "ARG_OF_PERICENTER": 28.5971, "MEAN_ANOMALY": 331.6931, "EPHEMERIS_TYPE": 0, "CLASSIFICATION_TYPE": "U", "NORAD_CAT_ID": 34886, "ELEMENT_SET_NO": 999, "REV_AT_EPOCH": 62847, "BSTAR": 0.0022652604, "MEAN_MOTION_DOT": 0.00083623, "MEAN_MOTION_DDOT": 0}, "tle": {"line1": "1 34886U 93036ACZ 25336.89820896  .00083623  00000+0  22653-2 0  9990", "line2": "2 34886  73.9522 202.2947 0031081  28.5971 331.6931 15.36781254628475"}}, "geometry": {"type": "Point", "coordinates": [142.01984603387572, -70.10877129656028]}}, {"type": "Feature", "properties": {"norad_id": 34907, "name": "COSMOS 2251 DEB", "group": "cosmos-2251-debris", "lat": 38.573002726821436, "lon": -131.0562353887458, "alt_km": 457.78513123085304, "timestamp": "2025-12-06T09:34:17.309555+00:00", "meta": {"OBJECT_NAME": "COSMOS 2251 DEB", "OBJECT_ID": "1993-036ADC", "EPOCH": "2025-12-05T15:47:59.728416", "MEAN_MOTION": 15.38137337, "ECCENTRICITY": 0.00187359, "INCLINATION": 73.9728, "RA_OF_ASC_NODE": 63.7989, "ARG_OF_PERICENTER": 350.4143, "MEAN_ANOMALY": 9.6703, "EPHEMERIS_TYPE": 0, "CLASSIFICATION_TYPE": "U", "NORAD_CAT_ID": 34907, "ELEMENT_SET_NO": 999, "REV_AT_EPOCH": 87864, "BSTAR": 0.010839259, "MEAN_MOTION_DOT": 0.00433014, "MEAN_MOTION_DDOT": 0}, "tle": {"line1": "1 34907U 93036ADC 25339.65833019  .00433014  00000+0  10839-1 0  9997", "line2": "2 34907  73.9728  63.7989 0018735 350.4143   9.6703 15.38137337878646"}}, "geometry": {"type": "Point", "coordinates": [-131.0562353887458, 38.573002726821436]}}, {"type": "Feature", "properties": {"norad_id": 34908, "name": "COSMOS 2251 DEB", "group": "cosmos-2251-debris", "lat": 34.87945489416993, "lon": 46.800893187501345, "alt_km": 737.2786609750437, "timestamp": "2025-12-06T09:34:17.309565+00:00", "meta": {"OBJECT_NAME": "COSMOS 2251 DEB", "OBJECT_ID": "1993-036ADD", "EPOCH": "2025-12-05T22:31:44.429088", "MEAN_MOTION": 14.37367186, "ECCENTRICITY": 0.00398635, "INCLINATION": 74.0595, "RA_OF_ASC_NODE": 36.154, "ARG_OF_PERICENTER": 54.5364, "MEAN_ANOMALY": 122.3252, "EPHEMERIS_TYPE": 0, "CLASSIFICATION_TYPE": "U", "NORAD_CAT_ID": 34908, "ELEMENT_SET_NO": 999, "REV_AT_EPOCH": 87181, "BSTAR": 0.0009291046, "MEAN_MOTION_DOT": 2.775e-05, "MEAN_MOTION_DDOT": 0}, "tle": {"line1": "1 34908U 93036ADD 25339.93870867  .00002775  00000+0  92910-3 0  9999", "line2": "2 34908  74.0595  36.1540 0039863  54.5364 122.3252 14.37367186871819"}}, "geometry": {"type": "Point", "coordinates": [46.800893187501345, 34.87945489416993]}}]}